IRIDIUM 116             
1 43072U 17083C   23315.50267706  .00000503  00000+0  17244-3 0  9990
2 43072  86.3994 358.5100 0002252  91.0691 269.0762 14.34215279308197
IRIDIUM 130             
1 43073U 17083D   23314.63373899  .00000516  00000+0  17722-3 0  9990
2 43073  86.4004 359.0560 0002146  96.3063 263.8377 14.34217370308019
IRIDIUM 151             
1 43074U 17083E   23314.53859403  .00000476  00000+0  16295-3 0  9999
2 43074  86.3997 358.9490 0002108  87.9822 272.1615 14.34219484308024
IRIDIUM 134             
1 43075U 17083F   23315.48363167  .00000488  00000+0  16728-3 0  9996
2 43075  86.3997 358.5492 0002231  96.5387 263.6063 14.34224699308129
IRIDIUM 137             
1 43076U 17083G   23315.14749288  .00000599  00000+0  20700-3 0  9990
2 43076  86.3997 358.7637 0002416  87.1968 272.9505 14.34214740308141
IRIDIUM 141             
1 43077U 17083H   23314.86207470  .00000039  00000+0  68487-5 0  9996
2 43077  86.3995 358.7672 0002002  91.1623 268.9802 14.34213856308101
IRIDIUM 153             
1 43078U 17083J   23315.51193445  .00000263  00000+0  86934-4 0  9991
2 43078  86.3950 326.9552 0001833  91.8891 268.2514 14.34214665309307
IRIDIUM 131             
1 43079U 17083K   23314.84938663  .00000146  00000+0  45092-4 0  9996
2 43079  86.4001 358.8950 0002029  93.4795 266.6633 14.34212004308039
